start=new Date('2022-03-31T00:00:00.000Z').valueOf();
sats=[{"COUNTRY_CODE":"US","MEAN_ANOMALY":"300.8165","CENTER_NAME":"EARTH","ARG_OF_PERICENTER":"59.2966","CLASSIFICATION_TYPE":"U","TIME_SYSTEM":"UTC","ECCENTRICITY":"0.00014380","MEAN_MOTION":"15.06397261","OBJECT_NAME":"STARLINK-1036","TLE_LINE2":"2 44741  53.0546 190.5869 0001438  59.2966 300.8165 15.06397261131611","MEAN_ELEMENT_THEORY":"SGP4","RCS_SIZE":"LARGE","EPHEMERIS_TYPE":"0","RA_OF_ASC_NODE":"190.5869","APOAPSIS":"548.218","OBJECT_TYPE":"PAYLOAD","GP_ID":"200045673","NORAD_CAT_ID":"44741","MEAN_MOTION_DDOT":"0.0000000000000","EPOCH":"2022-03-30T18:53:36.398976","REF_FRAME":"TEME","INCLINATION":"53.0546","LAUNCH_DATE":"2019-11-11","PERIOD":"95.592","SITE":"AFETR","REV_AT_EPOCH":"13161","ELEMENT_SET_NO":"999","TLE_LINE1":"1 44741U 19074AE  22089.78722684 -.00000488  00000-0 -13878-4 0  9999","DECAY_DATE":null,"PERIAPSIS":"546.226","FILE":"3380594","BSTAR":"-0.00001387800000","OBJECT_ID":"2019-074AE","SEMIMAJOR_AXIS":"6925.357","MEAN_MOTION_DOT":"-0.00000488"},{"COUNTRY_CODE":"US","MEAN_ANOMALY":"21.5613","CENTER_NAME":"EARTH","ARG_OF_PERICENTER":"338.5357","CLASSIFICATION_TYPE":"U","ECCENTRICITY":"0.00004790","TIME_SYSTEM":"UTC","MEAN_MOTION":"15.12242380","OBJECT_NAME":"STARLINK-1037","TLE_LINE2":"2 44742  52.9965 179.7196 0000479 338.5357  21.5613 15.12242380131554","MEAN_ELEMENT_THEORY":"SGP4","RCS_SIZE":"LARGE","EPHEMERIS_TYPE":"0","APOAPSIS":"529.696","RA_OF_ASC_NODE":"179.7196","OBJECT_TYPE":"PAYLOAD","GP_ID":"200094840","NORAD_CAT_ID":"44742","MEAN_MOTION_DDOT":"0.0000000000000","EPOCH":"2022-03-30T17:37:49.948896","REF_FRAME":"TEME","INCLINATION":"52.9965","LAUNCH_DATE":"2019-11-11","PERIOD":"95.223","SITE":"AFETR","REV_AT_EPOCH":"13155","ELEMENT_SET_NO":"999","TLE_LINE1":"1 44742U 19074AF  22089.73460589  .00025326  00000-0  14602-2 0  9998","DECAY_DATE":null,"FILE":"3380787","PERIAPSIS":"529.034","BSTAR":"0.00146020000000","SEMIMAJOR_AXIS":"6907.500","OBJECT_ID":"2019-074AF","MEAN_MOTION_DOT":"0.00025326"},{"MEAN_ANOMALY":"303.0115","COUNTRY_CODE":"US","TIME_SYSTEM":"UTC","ECCENTRICITY":"0.00014550","CLASSIFICATION_TYPE":"U","ARG_OF_PERICENTER":"57.1014","MEAN_MOTION":"15.06398925","CENTER_NAME":"EARTH","RCS_SIZE":"LARGE","EPHEMERIS_TYPE":"0","TLE_LINE2":"2 44743  53.0544 210.3646 0001455  57.1014 303.0115 15.06398925131264","OBJECT_NAME":"STARLINK-1038","MEAN_ELEMENT_THEORY":"SGP4","OBJECT_TYPE":"PAYLOAD","RA_OF_ASC_NODE":"210.3646","APOAPSIS":"548.224","GP_ID":"200095592","MEAN_MOTION_DDOT":"0.0000000000000","EPOCH":"2022-03-30T20:05:15.881568","INCLINATION":"53.0544","REF_FRAME":"TEME","NORAD_CAT_ID":"44743","ELEMENT_SET_NO":"999","SITE":"AFETR","REV_AT_EPOCH":"13126","TLE_LINE1":"1 44743U 19074AG  22089.83698937  .00003196  00000-0  23335-3 0  9995","LAUNCH_DATE":"2019-11-11","PERIOD":"95.592","OBJECT_ID":"2019-074AG","SEMIMAJOR_AXIS":"6925.352","MEAN_MOTION_DOT":"0.00003196","FILE":"3380787","PERIAPSIS":"546.209","DECAY_DATE":null,"BSTAR":"0.00023335000000"},{"CENTER_NAME":"EARTH","TIME_SYSTEM":"UTC","ECCENTRICITY":"0.00015240","CLASSIFICATION_TYPE":"U","ARG_OF_PERICENTER":"66.9799","MEAN_MOTION":"15.06404788","MEAN_ANOMALY":"293.1350","COUNTRY_CODE":"US","OBJECT_TYPE":"PAYLOAD","APOAPSIS":"548.254","RA_OF_ASC_NODE":"211.5072","TLE_LINE2":"2 44744  53.0537 211.5072 0001524  66.9799 293.1350 15.06404788131139","OBJECT_NAME":"STARLINK-1039","MEAN_ELEMENT_THEORY":"SGP4","RCS_SIZE":"LARGE","EPHEMERIS_TYPE":"0","NORAD_CAT_ID":"44744","MEAN_MOTION_DDOT":"0.0000000000000","EPOCH":"2022-03-30T13:59:01.608864","INCLINATION":"53.0537","REF_FRAME":"TEME","GP_ID":"200095342","PERIAPSIS":"546.143","FILE":"3380787","DECAY_DATE":null,"BSTAR":"0.00030807000000","SEMIMAJOR_AXIS":"6925.334","OBJECT_ID":"2019-074AH","MEAN_MOTION_DOT":"0.00004311","LAUNCH_DATE":"2019-11-11","PERIOD":"95.592","ELEMENT_SET_NO":"999","REV_AT_EPOCH":"13113","SITE":"AFETR","TLE_LINE1":"1 44744U 19074AH  22089.58265751  .00004311  00000-0  30807-3 0  9994"},{"MEAN_MOTION":"15.06399980","CLASSIFICATION_TYPE":"U","ARG_OF_PERICENTER":"66.6723","TIME_SYSTEM":"UTC","ECCENTRICITY":"0.00019070","CENTER_NAME":"EARTH","COUNTRY_CODE":"US","MEAN_ANOMALY":"293.4467","APOAPSIS":"548.534","RA_OF_ASC_NODE":"210.9859","OBJECT_TYPE":"PAYLOAD","EPHEMERIS_TYPE":"0","RCS_SIZE":"LARGE","MEAN_ELEMENT_THEORY":"SGP4","OBJECT_NAME":"STARLINK-1041","TLE_LINE2":"2 44746  53.0571 210.9859 0001907  66.6723 293.4467 15.06399980131155","REF_FRAME":"TEME","INCLINATION":"53.0571","MEAN_MOTION_DDOT":"0.0000000000000","EPOCH":"2022-03-30T16:48:52.329024","NORAD_CAT_ID":"44746","GP_ID":"200094090","MEAN_MOTION_DOT":"-0.00001389","OBJECT_ID":"2019-074AK","SEMIMAJOR_AXIS":"6925.349","BSTAR":"-0.00007433500000","DECAY_DATE":null,"PERIAPSIS":"545.893","FILE":"3380787","TLE_LINE1":"1 44746U 19074AK  22089.70060566 -.00001389  00000-0 -74335-4 0  9996","SITE":"AFETR","REV_AT_EPOCH":"13115","ELEMENT_SET_NO":"999","PERIOD":"95.592","LAUNCH_DATE":"2019-11-11"},{"APOAPSIS":"548.031","RA_OF_ASC_NODE":"210.8479","OBJECT_TYPE":"PAYLOAD","EPHEMERIS_TYPE":"0","RCS_SIZE":"LARGE","MEAN_ELEMENT_THEORY":"SGP4","OBJECT_NAME":"STARLINK-1042","TLE_LINE2":"2 44747  53.0555 210.8479 0001248  67.2927 292.8194 15.06415279131167","MEAN_MOTION":"15.06415279","ARG_OF_PERICENTER":"67.2927","CLASSIFICATION_TYPE":"U","TIME_SYSTEM":"UTC","ECCENTRICITY":"0.00012480","CENTER_NAME":"EARTH","COUNTRY_CODE":"US","MEAN_ANOMALY":"292.8194","MEAN_MOTION_DOT":"0.00000808","OBJECT_ID":"2019-074AL","SEMIMAJOR_AXIS":"6925.302","BSTAR":"0.00007308300000","DECAY_DATE":null,"PERIAPSIS":"546.302","FILE":"3380787","TLE_LINE1":"1 44747U 19074AL  22089.73008815  .00000808  00000-0  73083-4 0  9991","REV_AT_EPOCH":"13116","SITE":"AFETR","ELEMENT_SET_NO":"999","PERIOD":"95.591","LAUNCH_DATE":"2019-11-11","REF_FRAME":"TEME","INCLINATION":"53.0555","MEAN_MOTION_DDOT":"0.0000000000000","EPOCH":"2022-03-30T17:31:19.616160","NORAD_CAT_ID":"44747","GP_ID":"200094340"},{"PERIOD":"95.593","LAUNCH_DATE":"2019-11-11","TLE_LINE1":"1 44748U 19074AM  22089.82593739 -.00002880  00000-0 -17460-3 0  9996","ELEMENT_SET_NO":"999","REV_AT_EPOCH":"13117","SITE":"AFETR","BSTAR":"-0.00017460000000","PERIAPSIS":"546.222","FILE":"3380787","DECAY_DATE":null,"MEAN_MOTION_DOT":"-0.00002880","OBJECT_ID":"2019-074AM","SEMIMAJOR_AXIS":"6925.382","GP_ID":"200095092","NORAD_CAT_ID":"44748","INCLINATION":"53.0546","REF_FRAME":"TEME","MEAN_MOTION_DDOT":"0.0000000000000","EPOCH":"2022-03-30T19:49:20.990496","MEAN_ELEMENT_THEORY":"SGP4","TLE_LINE2":"2 44748  53.0546 210.4109 0001480  65.9520 294.1624 15.06389044131170","OBJECT_NAME":"STARLINK-1043","EPHEMERIS_TYPE":"0","RCS_SIZE":"LARGE","OBJECT_TYPE":"PAYLOAD","APOAPSIS":"548.272","RA_OF_ASC_NODE":"210.4109","MEAN_ANOMALY":"294.1624","COUNTRY_CODE":"US","CENTER_NAME":"EARTH","MEAN_MOTION":"15.06389044","TIME_SYSTEM":"UTC","ECCENTRICITY":"0.00014800","ARG_OF_PERICENTER":"65.9520","CLASSIFICATION_TYPE":"U"},{"REF_FRAME":"TEME","INCLINATION":"53.0536","MEAN_MOTION_DDOT":"0.0000000000000","EPOCH":"2022-03-30T15:23:57.942240","NORAD_CAT_ID":"44751","GP_ID":"200095843","MEAN_MOTION_DOT":"0.00004198","SEMIMAJOR_AXIS":"6925.343","OBJECT_ID":"2019-074AQ","BSTAR":"0.00030057000000","DECAY_DATE":null,"PERIAPSIS":"546.192","FILE":"3380787","TLE_LINE1":"1 44751U 19074AQ  22089.64164285  .00004198  00000-0  30057-3 0  9999","SITE":"AFETR","REV_AT_EPOCH":"13114","ELEMENT_SET_NO":"999","PERIOD":"95.592","LAUNCH_DATE":"2019-11-11","MEAN_MOTION":"15.06401692","ARG_OF_PERICENTER":"56.6195","CLASSIFICATION_TYPE":"U","ECCENTRICITY":"0.00014680","TIME_SYSTEM":"UTC","CENTER_NAME":"EARTH","COUNTRY_CODE":"US","MEAN_ANOMALY":"303.4934","APOAPSIS":"548.225","RA_OF_ASC_NODE":"211.2504","OBJECT_TYPE":"PAYLOAD","EPHEMERIS_TYPE":"0","RCS_SIZE":"LARGE","MEAN_ELEMENT_THEORY":"SGP4","OBJECT_NAME":"STARLINK-1046","TLE_LINE2":"2 44751  53.0536 211.2504 0001468  56.6195 303.4934 15.06401692131141"},{"GP_ID":"200094591","NORAD_CAT_ID":"44752","MEAN_MOTION_DDOT":"0.0000000000000","EPOCH":"2022-03-30T14:17:36.600864","INCLINATION":"53.0560","REF_FRAME":"TEME","LAUNCH_DATE":"2019-11-11","PERIOD":"95.592","ELEMENT_SET_NO":"999","REV_AT_EPOCH":"13141","SITE":"AFETR","TLE_LINE1":"1 44752U 19074AR  22089.59556251  .00001870  00000-0  14437-3 0  9990","FILE":"3380787","PERIAPSIS":"545.927","DECAY_DATE":null,"BSTAR":"0.00014437000000","SEMIMAJOR_AXIS":"6925.342","OBJECT_ID":"2019-074AR","MEAN_MOTION_DOT":"0.00001870","MEAN_ANOMALY":"304.2627","COUNTRY_CODE":"US","CENTER_NAME":"EARTH","TIME_SYSTEM":"UTC","ECCENTRICITY":"0.00018480","ARG_OF_PERICENTER":"55.8537","CLASSIFICATION_TYPE":"U","MEAN_MOTION":"15.06402088","TLE_LINE2":"2 44752  53.0560 191.4528 0001848  55.8537 304.2627 15.06402088131415","OBJECT_NAME":"STARLINK-1047","MEAN_ELEMENT_THEORY":"SGP4","RCS_SIZE":"LARGE","EPHEMERIS_TYPE":"0","OBJECT_TYPE":"PAYLOAD","RA_OF_ASC_NODE":"191.4528","APOAPSIS":"548.487"},{"MEAN_ANOMALY":"286.8436","COUNTRY_CODE":"US","ECCENTRICITY":"0.00014190","TIME_SYSTEM":"UTC","ARG_OF_PERICENTER":"73.2708","CLASSIFICATION_TYPE":"U","MEAN_MOTION":"15.06399739","CENTER_NAME":"EARTH","RCS_SIZE":"LARGE","EPHEMERIS_TYPE":"0","TLE_LINE2":"2 44753  53.0551 171.7183 0001419  73.2708 286.8436 15.06399739131851","OBJECT_NAME":"STARLINK-1048","MEAN_ELEMENT_THEORY":"SGP4","OBJECT_TYPE":"PAYLOAD","RA_OF_ASC_NODE":"171.7183","APOAPSIS":"548.197","GP_ID":"200035785","MEAN_MOTION_DDOT":"0.0000000000000","EPOCH":"2022-03-30T12:50:02.211648","INCLINATION":"53.0551","REF_FRAME":"TEME","NORAD_CAT_ID":"44753","ELEMENT_SET_NO":"999","SITE":"AFETR","REV_AT_EPOCH":"13185","TLE_LINE1":"1 44753U 19074AS  22089.53474782  .00001901  00000-0  14645-3 0  9999","LAUNCH_DATE":"2019-11-11","PERIOD":"95.592","OBJECT_ID":"2019-074AS","SEMIMAJOR_AXIS":"6925.349","MEAN_MOTION_DOT":"0.00001901","FILE":"3380073","PERIAPSIS":"546.232","DECAY_DATE":null,"BSTAR":"0.00014645000000"}];
